IRIDIUM 166             
1 43570U 18061B   23335.81557769  .00001005  00000+0  35163-3 0  9995
2 43570  86.3964  84.7344 0002288  94.7635 265.3822 14.34213987280337
IRIDIUM 158             
1 43571U 18061C   23335.78386422  .00000893  00000+0  31169-3 0  9994
2 43571  86.3964  84.7566 0002208  88.4934 271.6515 14.34214804280291
IRIDIUM 165             
1 43572U 18061D   23335.80924704  .00000804  00000+0  28008-3 0  9999
2 43572  86.3966  84.7750 0002206  85.1244 275.0203 14.34222312280324
IRIDIUM 155             
1 43573U 18061E   23335.84092556  .00000936  00000+0  32727-3 0  9994
2 43573  86.3964  84.6764 0002089 100.3512 259.7919 14.34215692280296
IRIDIUM 154             
1 43574U 18061F   23335.82192258  .00000801  00000+0  27902-3 0  9993
2 43574  86.3966  84.7727 0001704  93.6493 266.4897 14.34218338280340
IRIDIUM 163             
1 43575U 18061G   23336.36103767  .00001086  00000+0  38057-3 0  9990
2 43575  86.3963  84.4915 0001909  95.3615 264.7799 14.34215819280394
IRIDIUM 156             
1 43576U 18061H   23336.40544478  .00001173  00000+0  41160-3 0  9990
2 43576  86.3965  84.4793 0002292  91.7993 268.3466 14.34218713280382
IRIDIUM 164             
1 43577U 18061J   23336.38638202  .00001008  00000+0  35287-3 0  9997
2 43577  86.3962  84.5146 0002159  92.8233 267.3209 14.34217730280432
